     2.100          NAVIGATION                              RINEX VERSION / TYPE
fic2rin                                 07/10/2014 00:17:40 PGM / RUN BY / DATE
                                                            END OF HEADER
26 14  7  9 16  0  0.0  .200960785151D-04 -.123918653117D-10  .000000000000D+00
     .660000000000D+02  .119218750000D+03  .400766693541D-08 -.673135706918D+00
     .642985105515D-05  .212411027169D-01  .107027590275D-04  .515370261002D+04
     .316800000000D+06 -.152736902237D-06 -.260137712306D+00  .301748514175D-06
     .974842373961D+00  .190406250000D+03  .128793875209D+01 -.809283709915D-08
     .853606984729D-10  .100000000000D+01  .180000000000D+04  .000000000000D+00
     .240000000000D+01  .000000000000D+00 -.605359673500D-08  .660000000000D+02
     .309606000000D+06  .400000000000D+01
27 14  7  9 16  0  0.0 -.355718657374D-05  .306954461848D-11  .000000000000D+00
     .250000000000D+02 -.708750000000D+02  .426803492364D-08  .521577821078D+00
    -.361353158951D-05  .137321080547D-02  .106841325760D-04  .515368001175D+04
     .316800000000D+06 -.558793544769D-08  .278059223444D+01 -.745058059692D-08
     .964238336191D+00  .171000000000D+03  .253169557003D+00 -.780782522726D-08
     .116076263614D-09  .100000000000D+01  .180000000000D+04  .000000000000D+00
     .240000000000D+01  .000000000000D+00  .186264514923D-08  .250000000000D+02
     .309606000000D+06  .400000000000D+01
29 14  7  9 16  0  0.0  .545482616872D-03  .272848410532D-11  .000000000000D+00
     .270000000000D+02 -.704375000000D+02  .398195157855D-08 -.301965584524D+01
    -.367872416973D-05  .140212534461D-02  .119116157293D-04  .515368681145D+04
     .316800000000D+06 -.130385160446D-07  .283547546701D+01  .614672899246D-07
     .970240952396D+00  .154687500000D+03 -.817916582332D+00 -.762710341376D-08
     .274654297597D-09  .100000000000D+01  .180000000000D+04  .000000000000D+00
     .240000000000D+01  .000000000000D+00 -.977888703346D-08  .270000000000D+02
     .309606000000D+06  .400000000000D+01
30 14  7  9 16  0  0.0 -.296835787594D-04 -.648014975013D-11  .000000000000D+00
     .770000000000D+02  .659687500000D+02  .487877464912D-08 -.206793186621D+01
     .342912971973D-05  .881484127603D-03  .210665166378D-05  .515368351936D+04
     .316800000000D+06  .242143869400D-07  .766301062555D+00 -.279396772385D-07
     .958806895870D+00  .343187500000D+03  .285425162265D+01 -.845570935709D-08
     .225366530278D-09  .100000000000D+01  .180000000000D+04  .000000000000D+00
     .240000000000D+01  .000000000000D+00  .325962901115D-08  .770000000000D+02
     .309606000000D+06  .400000000000D+01
31 14  7  9 16  0  0.0  .333613716066D-03 -.227373675443D-12  .000000000000D+00
     .500000000000D+02  .872812500000D+02  .444625663301D-08 -.226995743266D+01
     .468268990517D-05  .795798934996D-02  .261515378952D-05  .515358014297D+04
     .316800000000D+06 -.212341547012D-06  .718772300986D+00  .139698386192D-06
     .978177151313D+00  .341718750000D+03 -.633893071345D+00 -.818569811004D-08
     .274297139863D-09  .100000000000D+01  .180000000000D+04  .000000000000D+00
     .240000000000D+01  .000000000000D+00 -.130385160446D-07  .500000000000D+02
     .309606000000D+06  .400000000000D+01
32 14  7  9 16  0  0.0 -.389035791159D-03  .841282599140D-11  .000000000000D+00
     .890000000000D+02 -.291250000000D+02  .484270171796D-08 -.165771812655D+01
    -.154227018356D-05  .114015049767D-01  .846013426781D-05  .515369880295D+04
     .316800000000D+06 -.143423676491D-06 -.132106584443D+01 -.117346644402D-06
     .947197725124D+00  .210406250000D+03 -.135448651809D+00 -.810748056625D-08
    -.320013329840D-09  .100000000000D+01  .180000000000D+04  .000000000000D+00
     .240000000000D+01  .000000000000D+00 -.325962901115D-08  .890000000000D+02
     .309606000000D+06  .400000000000D+01
12 14  7  9 15 59 44.0  .216944143176D-03  .250111042988D-11  .000000000000D+00
     .130000000000D+02 -.125968750000D+03  .409017037201D-08 -.266368419675D+01
    -.651367008686D-05  .512660690583D-02  .467710196972D-05  .515359566307D+04
     .316784000000D+06 -.931322574615D-08  .177644258476D+01 -.156462192535D-06
     .987652754056D+00  .300312500000D+03  .481477754590D+00 -.803283459980D-08
    -.324656380384D-09  .100000000000D+01  .180000000000D+04  .000000000000D+00
     .240000000000D+01  .000000000000D+00 -.121071934700D-07  .130000000000D+02
     .310206000000D+06  .400000000000D+01
17 14  7  9 15 59 44.0 -.107598491013D-03 -.295585778076D-11  .000000000000D+00
     .240000000000D+02 -.527500000000D+02  .419053169532D-08  .591049411718D+00
    -.266917049885D-05  .934469490312D-02  .113025307655D-04  .515362190056D+04
     .316784000000D+06 -.165775418282D-06  .282638074962D+01  .651925802231D-07
     .969488661403D+00  .169843750000D+03 -.209912325460D+01 -.789390024120D-08
     .161078138122D-09  .100000000000D+01  .180000000000D+04  .000000000000D+00
     .240000000000D+01  .000000000000D+00 -.102445483208D-07  .240000000000D+02
     .311346000000D+06  .400000000000D+01
17 14  7  9 17 59 44.0 -.107619911432D-03 -.295585778076D-11  .000000000000D+00
     .250000000000D+02 -.644375000000D+02  .411588572888D-08  .164109850234D+01
    -.341050326824D-05  .934504449833D-02  .113006681204D-04  .515362475586D+04
     .323984000000D+06 -.245869159698D-06  .282632358756D+01 -.137835741043D-06
     .969490283779D+00  .170625000000D+03 -.209896244626D+01 -.777603818892D-08
     .230009580822D-09  .100000000000D+01  .180000000000D+04  .000000000000D+00
     .240000000000D+01  .000000000000D+00 -.102445483208D-07  .250000000000D+02
     .316806000000D+06  .400000000000D+01
 1 14  7  9 18  0  0.0  .172671861947D-04  .909494701773D-12  .000000000000D+00
     .620000000000D+02  .147187500000D+02  .480984320642D-08 -.529407956972D+00
     .612810254097D-06  .324352097232D-02  .659376382828D-05  .515366944885D+04
     .324000000000D+06  .521540641785D-07 -.244785909084D+01  .223517417908D-07
     .961047452924D+00  .252937500000D+03  .334907092533D+00 -.812426697976D-08
     .267868300647D-09  .100000000000D+01  .180000000000D+04  .000000000000D+00
     .240000000000D+01  .000000000000D+00  .558793544769D-08  .620000000000D+02
     .316806000000D+06  .400000000000D+01
 2 14  7  9 18  0  0.0  .505789183080D-03  .216004991671D-11  .000000000000D+00
     .570000000000D+02  .167187500000D+02  .547522806523D-08  .112307161793D+00
     .974163413048D-06  .136187589960D-01  .621192157269D-05  .515362697601D+04
     .324000000000D+06  .465661287308D-07 -.247841856152D+01  .223517417908D-06
     .939616008813D+00  .250031250000D+03 -.240811548336D+01 -.865750347691D-08
     .262868092368D-09  .100000000000D+01  .180000000000D+04  .000000000000D+00
     .240000000000D+01  .000000000000D+00 -.204890966415D-07  .570000000000D+02
     .316806000000D+06  .400000000000D+01
 3 14  7  9 18  0  0.0  .388348475099D-03  .477484718431D-11  .000000000000D+00
     .980000000000D+02 -.851562500000D+02  .503306679029D-08  .172055852165D+00
    -.418350100517D-05  .172076578019D-01  .104270875454D-04  .515381140137D+04
     .324000000000D+06 -.193715095520D-06  .263022457875D+01  .689178705215D-07
     .939142737259D+00  .171312500000D+03  .139967993429D+01 -.847356724380D-08
     .839320675361D-10  .100000000000D+01  .180000000000D+04  .000000000000D+00
     .340000000000D+01  .000000000000D+00 -.465661287308D-08  .980000000000D+02
     .316806000000D+06  .400000000000D+01
 4 14  7  9 18  0  0.0  .738771632314D-05  .113686837722D-12  .000000000000D+00
     .320000000000D+02  .168437500000D+02  .527557689181D-08 -.243286907984D+01
     .860542058945D-06  .107611004496D-01  .626035034657D-05  .515195596313D+04
     .324000000000D+06  .150874257088D-06 -.246248898261D+01 -.149011611938D-07
     .938616800654D+00  .246406250000D+03  .105007466828D+01 -.824105755884D-08
     .393230665350D-09  .100000000000D+01  .180000000000D+04  .000000000000D+00
     .240000000000D+01  .000000000000D+00 -.651925802231D-08  .320000000000D+02
     .316806000000D+06  .400000000000D+01
 5 14  7  9 18  0  0.0 -.359425321221D-03  .306954461848D-11  .000000000000D+00
     .260000000000D+02 -.198750000000D+02  .496734976720D-08  .250012962048D+01
    -.109523534775D-05  .363904982805D-02  .775232911110D-05  .515362742615D+04
     .324000000000D+06 -.111758708954D-07 -.140999424406D+01  .204890966415D-07
     .946683955610D+00  .224812500000D+03  .298046466489D+00 -.814998233662D-08
    -.525379027002D-09  .100000000000D+01  .180000000000D+04  .000000000000D+00
     .240000000000D+01  .000000000000D+00 -.102445483208D-07  .260000000000D+02
     .316806000000D+06  .400000000000D+01
 6 14  7  9 18  0  0.0  .157719478011D-05 -.250111042988D-11  .000000000000D+00
     .170000000000D+02  .155937500000D+02  .483484424781D-08  .223886919023D+01
     .851228833199D-06  .376280164346D-03  .651367008686D-05  .515353762436D+04
     .324000000000D+06  .279396772385D-07 -.245643176591D+01  .279396772385D-07
     .960985928441D+00  .255156250000D+03  .226862433832D+01 -.813391023858D-08
     .289654922433D-09  .100000000000D+01  .180000000000D+04  .000000000000D+00
     .240000000000D+01  .000000000000D+00  .605359673500D-08  .170000000000D+02
     .316806000000D+06  .400000000000D+01
 7 14  7  9 18  0  0.0  .366819091141D-03  .432009983342D-11  .000000000000D+00
     .950000000000D+02  .808437500000D+02  .439482591928D-08 -.113301000895D+01
     .416673719883D-05  .759736460168D-02  .224076211452D-05  .515362246513D+04
     .324000000000D+06  .115483999252D-06  .712375286456D+00 -.409781932831D-07
     .973255033236D+00  .338343750000D+03 -.282759699631D+01 -.824962934446D-08
     .367872466222D-09  .100000000000D+01  .180000000000D+04  .000000000000D+00
     .240000000000D+01  .000000000000D+00 -.107102096081D-07  .950000000000D+02
     .316806000000D+06  .400000000000D+01
